STARLINK-36182          
1 67192U 25304A   26068.68352787  .00003262  00000+0  28104-3 0  9997
2 67192  70.0026 174.4842 0003805 265.7123  94.3601 14.98330411 13858
ION SCV-021             
1 67483U 25276DT  26068.74606001  .00002399  00000+0  21145-3 0  9994
2 67483  97.5322 142.8125 0013138  96.8695 263.4023 14.97286526  7726
